start=new Date('2022-05-29T00:00:00.000Z').valueOf();
sats=[{"ARG_OF_PERICENTER":"29.2049","FILE":"3469840","GP_ID":"204805172","REV_AT_EPOCH":"130","MEAN_MOTION_DOT":"-0.00018105","DECAY_DATE":null,"REF_FRAME":"TEME","RCS_SIZE":"LARGE","MEAN_ANOMALY":"357.0958","SEMIMAJOR_AXIS":"6917.843","TIME_SYSTEM":"UTC","INCLINATION":"53.2154","OBJECT_ID":"2021-115V","NORAD_CAT_ID":"49743","CLASSIFICATION_TYPE":"U","CENTER_NAME":"EARTH","ELEMENT_SET_NO":"999","EPOCH":"2022-05-28T22:00:00.999936","MEAN_ELEMENT_THEORY":"SGP4","BSTAR":"-0.00112190000000","SITE":"AFETR","PERIAPSIS":"538.187","OBJECT_TYPE":"PAYLOAD","EPHEMERIS_TYPE":"0","APOAPSIS":"541.229","TLE_LINE2":"2 49743  53.2154 227.6616 0002199  29.2049 357.0958 15.08852206  1304","COUNTRY_CODE":"US","LAUNCH_DATE":"2021-12-02","PERIOD":"95.437","MEAN_MOTION_DDOT":"0.0000000000000","ECCENTRICITY":"0.00021990","OBJECT_NAME":"STARLINK-3239","TLE_LINE1":"1 49743U 21115V   22148.91667824 -.00018105  00000-0 -11219-2 0  9990","RA_OF_ASC_NODE":"227.6616","MEAN_MOTION":"15.08852206"},{"EPHEMERIS_TYPE":"0","APOAPSIS":"541.570","COUNTRY_CODE":"US","TLE_LINE2":"2 49744  53.2111 227.6580 0002706  32.2736 254.0149 15.08855501  1308","SITE":"AFETR","OBJECT_TYPE":"PAYLOAD","PERIAPSIS":"537.826","ELEMENT_SET_NO":"999","EPOCH":"2022-05-28T22:00:00.999936","BSTAR":"-0.00073316000000","MEAN_ELEMENT_THEORY":"SGP4","CENTER_NAME":"EARTH","NORAD_CAT_ID":"49744","CLASSIFICATION_TYPE":"U","MEAN_MOTION":"15.08855501","TLE_LINE1":"1 49744U 21115W   22148.91667824 -.00011944  00000-0 -73316-3 0  9992","RA_OF_ASC_NODE":"227.6580","ECCENTRICITY":"0.00027060","MEAN_MOTION_DDOT":"0.0000000000000","OBJECT_NAME":"STARLINK-3231","PERIOD":"95.437","LAUNCH_DATE":"2021-12-02","RCS_SIZE":"LARGE","REF_FRAME":"TEME","MEAN_MOTION_DOT":"-0.00011944","REV_AT_EPOCH":"130","DECAY_DATE":null,"GP_ID":"204805923","ARG_OF_PERICENTER":"32.2736","FILE":"3469840","OBJECT_ID":"2021-115W","INCLINATION":"53.2111","TIME_SYSTEM":"UTC","SEMIMAJOR_AXIS":"6917.833","MEAN_ANOMALY":"254.0149"},{"GP_ID":"204806174","FILE":"3469840","ARG_OF_PERICENTER":"28.3844","REF_FRAME":"TEME","RCS_SIZE":"LARGE","DECAY_DATE":null,"MEAN_MOTION_DOT":"-0.00054750","REV_AT_EPOCH":"130","MEAN_ANOMALY":"317.8629","INCLINATION":"53.2154","TIME_SYSTEM":"UTC","OBJECT_ID":"2021-115X","SEMIMAJOR_AXIS":"6917.735","MEAN_ELEMENT_THEORY":"SGP4","BSTAR":"-0.00344360000000","EPOCH":"2022-05-28T22:00:00.999936","ELEMENT_SET_NO":"999","CLASSIFICATION_TYPE":"U","NORAD_CAT_ID":"49745","CENTER_NAME":"EARTH","COUNTRY_CODE":"US","TLE_LINE2":"2 49745  53.2154 227.6656 0002351  28.3844 317.8629 15.08887506  1303","APOAPSIS":"541.227","EPHEMERIS_TYPE":"0","OBJECT_TYPE":"PAYLOAD","PERIAPSIS":"537.974","SITE":"AFETR","PERIOD":"95.435","LAUNCH_DATE":"2021-12-02","MEAN_MOTION":"15.08887506","ECCENTRICITY":"0.00023510","MEAN_MOTION_DDOT":"0.0000000000000","OBJECT_NAME":"STARLINK-3241","TLE_LINE1":"1 49745U 21115X   22148.91667824 -.00054750  00000-0 -34436-2 0  9994","RA_OF_ASC_NODE":"227.6656"},{"MEAN_ANOMALY":"207.8881","INCLINATION":"53.2098","TIME_SYSTEM":"UTC","OBJECT_ID":"2021-115Y","SEMIMAJOR_AXIS":"6917.749","GP_ID":"204806419","ARG_OF_PERICENTER":"38.4030","FILE":"3469840","RCS_SIZE":"LARGE","REF_FRAME":"TEME","REV_AT_EPOCH":"130","MEAN_MOTION_DOT":"-0.00051687","DECAY_DATE":null,"PERIOD":"95.435","LAUNCH_DATE":"2021-12-02","MEAN_MOTION":"15.08882889","ECCENTRICITY":"0.00018300","MEAN_MOTION_DDOT":"0.0000000000000","OBJECT_NAME":"STARLINK-3233","TLE_LINE1":"1 49746U 21115Y   22148.91667824 -.00051687  00000-0 -32490-2 0  9999","RA_OF_ASC_NODE":"227.6701","EPOCH":"2022-05-28T22:00:00.999936","ELEMENT_SET_NO":"999","BSTAR":"-0.00324900000000","MEAN_ELEMENT_THEORY":"SGP4","NORAD_CAT_ID":"49746","CLASSIFICATION_TYPE":"U","CENTER_NAME":"EARTH","APOAPSIS":"540.880","EPHEMERIS_TYPE":"0","TLE_LINE2":"2 49746  53.2098 227.6701 0001830  38.4030 207.8881 15.08882889  1309","COUNTRY_CODE":"US","SITE":"AFETR","PERIAPSIS":"538.348","OBJECT_TYPE":"PAYLOAD"},{"EPHEMERIS_TYPE":"0","APOAPSIS":"541.164","TLE_LINE2":"2 49747  53.2124 227.6525 0002179  30.7098 275.5828 15.08868911  1303","COUNTRY_CODE":"US","SITE":"AFETR","PERIAPSIS":"538.150","OBJECT_TYPE":"PAYLOAD","EPOCH":"2022-05-28T22:00:00.999936","ELEMENT_SET_NO":"999","MEAN_ELEMENT_THEORY":"SGP4","BSTAR":"-0.00201220000000","CENTER_NAME":"EARTH","NORAD_CAT_ID":"49747","CLASSIFICATION_TYPE":"U","MEAN_MOTION":"15.08868911","RA_OF_ASC_NODE":"227.6525","TLE_LINE1":"1 49747U 21115Z   22148.91667824 -.00032196  00000-0 -20122-2 0  9993","OBJECT_NAME":"STARLINK-3247","MEAN_MOTION_DDOT":"0.0000000000000","ECCENTRICITY":"0.00021790","PERIOD":"95.436","LAUNCH_DATE":"2021-12-02","RCS_SIZE":"LARGE","REF_FRAME":"TEME","MEAN_MOTION_DOT":"-0.00032196","REV_AT_EPOCH":"130","DECAY_DATE":null,"GP_ID":"204805673","ARG_OF_PERICENTER":"30.7098","FILE":"3469840","OBJECT_ID":"2021-115Z","INCLINATION":"53.2124","TIME_SYSTEM":"UTC","SEMIMAJOR_AXIS":"6917.792","MEAN_ANOMALY":"275.5828"},{"SEMIMAJOR_AXIS":"6917.738","OBJECT_ID":"2021-115AA","TIME_SYSTEM":"UTC","INCLINATION":"53.2199","MEAN_ANOMALY":"174.5239","MEAN_MOTION_DOT":"-0.00052918","REV_AT_EPOCH":"130","DECAY_DATE":null,"REF_FRAME":"TEME","RCS_SIZE":"LARGE","ARG_OF_PERICENTER":"31.7163","FILE":"3469840","GP_ID":"204805423","RA_OF_ASC_NODE":"227.6484","TLE_LINE1":"1 49748U 21115AA  22148.91667824 -.00052918  00000-0 -33270-2 0  9996","OBJECT_NAME":"STARLINK-3248","MEAN_MOTION_DDOT":"0.0000000000000","ECCENTRICITY":"0.00023070","MEAN_MOTION":"15.08886604","LAUNCH_DATE":"2021-12-02","PERIOD":"95.435","SITE":"AFETR","OBJECT_TYPE":"PAYLOAD","PERIAPSIS":"538.007","APOAPSIS":"541.199","EPHEMERIS_TYPE":"0","TLE_LINE2":"2 49748  53.2199 227.6484 0002307  31.7163 174.5239 15.08886604  1300","COUNTRY_CODE":"US","CENTER_NAME":"EARTH","NORAD_CAT_ID":"49748","CLASSIFICATION_TYPE":"U","EPOCH":"2022-05-28T22:00:00.999936","ELEMENT_SET_NO":"999","BSTAR":"-0.00332700000000","MEAN_ELEMENT_THEORY":"SGP4"},{"RCS_SIZE":"LARGE","REF_FRAME":"TEME","DECAY_DATE":null,"MEAN_MOTION_DOT":"-0.00042263","REV_AT_EPOCH":"130","GP_ID":"204806675","FILE":"3469840","ARG_OF_PERICENTER":"38.4974","OBJECT_ID":"2021-115AB","TIME_SYSTEM":"UTC","INCLINATION":"53.2111","SEMIMAJOR_AXIS":"6917.770","MEAN_ANOMALY":"227.7671","COUNTRY_CODE":"US","TLE_LINE2":"2 49749  53.2111 227.6596 0001841  38.4974 227.7671 15.08876261  1304","EPHEMERIS_TYPE":"0","APOAPSIS":"540.908","OBJECT_TYPE":"PAYLOAD","PERIAPSIS":"538.361","SITE":"AFETR","MEAN_ELEMENT_THEORY":"SGP4","BSTAR":"-0.00265030000000","ELEMENT_SET_NO":"999","EPOCH":"2022-05-28T22:00:00.999936","CENTER_NAME":"EARTH","CLASSIFICATION_TYPE":"U","NORAD_CAT_ID":"49749","MEAN_MOTION":"15.08876261","RA_OF_ASC_NODE":"227.6596","TLE_LINE1":"1 49749U 21115AB  22148.91667824 -.00042263  00000-0 -26503-2 0  9990","OBJECT_NAME":"STARLINK-3250","MEAN_MOTION_DDOT":"0.0000000000000","ECCENTRICITY":"0.00018410","PERIOD":"95.435","LAUNCH_DATE":"2021-12-02"},{"CENTER_NAME":"EARTH","NORAD_CAT_ID":"49750","CLASSIFICATION_TYPE":"U","ELEMENT_SET_NO":"999","EPOCH":"2022-05-28T22:00:00.999936","MEAN_ELEMENT_THEORY":"SGP4","BSTAR":"-0.00115650000000","SITE":"AFETR","PERIAPSIS":"537.955","OBJECT_TYPE":"PAYLOAD","APOAPSIS":"541.396","EPHEMERIS_TYPE":"0","COUNTRY_CODE":"US","TLE_LINE2":"2 49750  53.2182 227.6545 0002487  21.4908 144.8320 15.08862956  1300","LAUNCH_DATE":"2021-12-02","PERIOD":"95.436","TLE_LINE1":"1 49750U 21115AC  22148.91667824 -.00018659  00000-0 -11565-2 0  9996","RA_OF_ASC_NODE":"227.6545","MEAN_MOTION_DDOT":"0.0000000000000","ECCENTRICITY":"0.00024870","OBJECT_NAME":"STARLINK-3236","MEAN_MOTION":"15.08862956","ARG_OF_PERICENTER":"21.4908","FILE":"3469840","GP_ID":"204806920","REV_AT_EPOCH":"130","MEAN_MOTION_DOT":"-0.00018659","DECAY_DATE":null,"RCS_SIZE":"LARGE","REF_FRAME":"TEME","MEAN_ANOMALY":"144.8320","SEMIMAJOR_AXIS":"6917.810","OBJECT_ID":"2021-115AC","TIME_SYSTEM":"UTC","INCLINATION":"53.2182"},{"LAUNCH_DATE":"2021-12-02","PERIOD":"95.436","ECCENTRICITY":"0.00019540","MEAN_MOTION_DDOT":"0.0000000000000","OBJECT_NAME":"STARLINK-3229","RA_OF_ASC_NODE":"227.6403","TLE_LINE1":"1 49751U 21115AD  22148.91667824 -.00044923  00000-0 -28200-2 0  9994","MEAN_MOTION":"15.08866887","NORAD_CAT_ID":"49751","CLASSIFICATION_TYPE":"U","CENTER_NAME":"EARTH","ELEMENT_SET_NO":"999","EPOCH":"2022-05-28T22:00:00.999936","BSTAR":"-0.00282000000000","MEAN_ELEMENT_THEORY":"SGP4","SITE":"AFETR","OBJECT_TYPE":"PAYLOAD","PERIAPSIS":"538.311","APOAPSIS":"541.015","EPHEMERIS_TYPE":"0","TLE_LINE2":"2 49751  53.2213 227.6403 0001954  36.1861 190.1284 15.08866887  1308","COUNTRY_CODE":"US","MEAN_ANOMALY":"190.1284","SEMIMAJOR_AXIS":"6917.798","INCLINATION":"53.2213","TIME_SYSTEM":"UTC","OBJECT_ID":"2021-115AD","ARG_OF_PERICENTER":"36.1861","FILE":"3469840","GP_ID":"204805173","REV_AT_EPOCH":"130","MEAN_MOTION_DOT":"-0.00044923","DECAY_DATE":null,"RCS_SIZE":"LARGE","REF_FRAME":"TEME"},{"PERIAPSIS":"538.472","OBJECT_TYPE":"PAYLOAD","SITE":"AFETR","TLE_LINE2":"2 49752  53.2167 217.6646 0001757  42.0364  39.1590 15.08859074  1302","COUNTRY_CODE":"US","EPHEMERIS_TYPE":"0","APOAPSIS":"540.903","CLASSIFICATION_TYPE":"U","NORAD_CAT_ID":"49752","CENTER_NAME":"EARTH","BSTAR":"0.00008394700000","MEAN_ELEMENT_THEORY":"SGP4","ELEMENT_SET_NO":"999","EPOCH":"2022-05-28T22:00:00.999936","ECCENTRICITY":"0.00017570","MEAN_MOTION_DDOT":"0.0000000000000","OBJECT_NAME":"STARLINK-3209","RA_OF_ASC_NODE":"217.6646","TLE_LINE1":"1 49752U 21115AE  22148.91667824  .00001049  00000-0  83947-4 0  9996","MEAN_MOTION":"15.08859074","LAUNCH_DATE":"2021-12-02","PERIOD":"95.436","DECAY_DATE":null,"REV_AT_EPOCH":"130","MEAN_MOTION_DOT":"0.00001049","REF_FRAME":"TEME","RCS_SIZE":"LARGE","FILE":"3469840","ARG_OF_PERICENTER":"42.0364","GP_ID":"204805924","SEMIMAJOR_AXIS":"6917.822","INCLINATION":"53.2167","TIME_SYSTEM":"UTC","OBJECT_ID":"2021-115AE","MEAN_ANOMALY":"39.1590"}];
